{
    "links": {
        "self": "http://www.neowsapp.com/rest/v1/neo/54075988?api_key=iIulBulltgU6a56xZRHN4H3l9WmuAYTsLGpBGhQ2"
    },
    "id": "54075988",
    "neo_reference_id": "54075988",
    "name": "(2020 UQ3)",
    "designation": "2020 UQ3",
    "nasa_jpl_url": "http://ssd.jpl.nasa.gov/sbdb.cgi?sstr=54075988",
    "absolute_magnitude_h": 23.805,
    "estimated_diameter": {
        "kilometers": {
            "estimated_diameter_min": 0.0460845103,
            "estimated_diameter_max": 0.1030480977
        },
        "meters": {
            "estimated_diameter_min": 46.0845102603,
            "estimated_diameter_max": 103.0480976518
        },
        "miles": {
            "estimated_diameter_min": 0.0286355782,
            "estimated_diameter_max": 0.0640310995
        },
        "feet": {
            "estimated_diameter_min": 151.1959046424,
            "estimated_diameter_max": 338.0843207
        }
    },
    "is_potentially_hazardous_asteroid": false,
    "close_approach_data": [
        {
            "close_approach_date": "2017-10-20",
            "close_approach_date_full": "2017-Oct-20 05:49",
            "epoch_date_close_approach": 1508478540000,
            "relative_velocity": {
                "kilometers_per_second": "20.6238066833",
                "kilometers_per_hour": "74245.7040597922",
                "miles_per_hour": "46133.3931698192"
            },
            "miss_distance": {
                "astronomical": "0.3783920089",
                "lunar": "147.1944914621",
                "kilometers": "56606638.556461043",
                "miles": "35173734.1712586734"
            },
            "orbiting_body": "Earth"
        },
        {
            "close_approach_date": "2020-09-24",
            "close_approach_date_full": "2020-Sep-24 05:43",
            "epoch_date_close_approach": 1600926180000,
            "relative_velocity": {
                "kilometers_per_second": "10.5515421354",
                "kilometers_per_hour": "37985.5516873921",
                "miles_per_hour": "23602.7446026465"
            },
            "miss_distance": {
                "astronomical": "0.0595320584",
                "lunar": "23.1579707176",
                "kilometers": "8905869.133355608",
                "miles": "5533850.4714110704"
            },
            "orbiting_body": "Earth"
        },
        {
            "close_approach_date": "2023-07-17",
            "close_approach_date_full": "2023-Jul-17 03:29",
            "epoch_date_close_approach": 1689564540000,
            "relative_velocity": {
                "kilometers_per_second": "9.4380872339",
                "kilometers_per_hour": "33977.1140419452",
                "miles_per_hour": "21112.057333452"
            },
            "miss_distance": {
                "astronomical": "0.0090809587",
                "lunar": "3.5324929343",
                "kilometers": "1358492.079077969",
                "miles": "844127.8352112122"
            },
            "orbiting_body": "Earth"
        },
        {
            "close_approach_date": "2023-07-17",
            "close_approach_date_full": "2023-Jul-17 10:29",
            "epoch_date_close_approach": 1689589740000,
            "relative_velocity": {
                "kilometers_per_second": "10.0548482698",
                "kilometers_per_hour": "36197.453771136",
                "miles_per_hour": "22491.6900946261"
            },
            "miss_distance": {
                "astronomical": "0.0091983972",
                "lunar": "3.5781765108",
                "kilometers": "1376060.628533964",
                "miles": "855044.4256341432"
            },
            "orbiting_body": "Moon"
        }
    ],
    "orbital_data": {
        "orbit_id": "7",
        "orbit_determination_date": "2020-11-25 09:20:24",
        "first_observation_date": "2020-10-13",
        "last_observation_date": "2020-11-18",
        "data_arc_in_days": 36,
        "observations_used": 28,
        "orbit_uncertainty": "6",
        "minimum_orbit_intersection": ".00834153",
        "jupiter_tisserand_invariant": "3.596",
        "epoch_osculation": "2459000.5",
        "eccentricity": ".5309794165408084",
        "semi_major_axis": "2.055131632781398",
        "inclination": "2.804301281167056",
        "ascending_node_longitude": "124.26459509",
        "orbital_period": "1076.113037032222",
        "perihelion_distance": ".9638990374925724",
        "perihelion_argument": "201.5288523985076",
        "aphelion_distance": "3.146364228070224",
        "perihelion_time": "2459089.774723392084",
        "mean_anomaly": "330.1342709221468",
        "mean_motion": ".3345373465531397",
        "equinox": "J2000",
        "orbit_class": {
            "orbit_class_type": "APO",
            "orbit_class_description": "Near-Earth asteroid orbits which cross the Earth’s orbit similar to that of 1862 Apollo",
            "orbit_class_range": "a (semi-major axis) > 1.0 AU; q (perihelion) < 1.017 AU"
        }
    },
    "is_sentry_object": false
}